CCSDS_OMM_VERS = 2.0
CREATION_DATE  = 
ORIGINATOR     = 

OBJECT_NAME    = COSMOS 2058
OBJECT_ID      = 1990-010A
CENTER_NAME    = EARTH
REF_FRAME      = TEME
TIME_SYSTEM    = UTC
MEAN_ELEMENT_THEORY = SGP/SGP4

EPOCH          = 2026-03-07T04:45:40.726656
MEAN_MOTION    = 15.11292739
ECCENTRICITY   = .000959
INCLINATION    = 82.4672
RA_OF_ASC_NODE = 49.8823
ARG_OF_PERICENTER = 351.9384
MEAN_ANOMALY   = 8.1690

EPHEMERIS_TYPE = 0
CLASSIFICATION_TYPE = U
NORAD_CAT_ID   = 20465
ELEMENT_SET_NO = 999
REV_AT_EPOCH   = 94186
BSTAR          = .29327E-3
MEAN_MOTION_DOT = .4969E-4
MEAN_MOTION_DDOT = 0

CCSDS_OMM_VERS = 2.0
CREATION_DATE  = 
ORIGINATOR     = 

OBJECT_NAME    = SL-14 R/B
OBJECT_ID      = 1990-010B
CENTER_NAME    = EARTH
REF_FRAME      = TEME
TIME_SYSTEM    = UTC
MEAN_ELEMENT_THEORY = SGP/SGP4

EPOCH          = 2026-03-07T01:21:19.859040
MEAN_MOTION    = 14.83565839
ECCENTRICITY   = .0018695
INCLINATION    = 82.4989
RA_OF_ASC_NODE = 269.8630
ARG_OF_PERICENTER = 311.5905
MEAN_ANOMALY   = 48.3707

EPHEMERIS_TYPE = 0
CLASSIFICATION_TYPE = U
NORAD_CAT_ID   = 20466
ELEMENT_SET_NO = 999
REV_AT_EPOCH   = 92809
BSTAR          = .54152E-4
MEAN_MOTION_DOT = .471E-5
MEAN_MOTION_DDOT = 0

CCSDS_OMM_VERS = 2.0
CREATION_DATE  = 
ORIGINATOR     = 

OBJECT_NAME    = SL-14 R/B
OBJECT_ID      = 1990-018B
CENTER_NAME    = EARTH
REF_FRAME      = TEME
TIME_SYSTEM    = UTC
MEAN_ELEMENT_THEORY = SGP/SGP4

EPOCH          = 2026-03-06T22:28:56.850240
MEAN_MOTION    = 14.82140967
ECCENTRICITY   = .0017638
INCLINATION    = 82.5197
RA_OF_ASC_NODE = 225.6628
ARG_OF_PERICENTER = 100.3707
MEAN_ANOMALY   = 259.9496

EPHEMERIS_TYPE = 0
CLASSIFICATION_TYPE = U
NORAD_CAT_ID   = 20511
ELEMENT_SET_NO = 999
REV_AT_EPOCH   = 92217
BSTAR          = .77717E-4
MEAN_MOTION_DOT = .644E-5
MEAN_MOTION_DDOT = 0

CCSDS_OMM_VERS = 2.0
CREATION_DATE  = 
ORIGINATOR     = 

OBJECT_NAME    = HST
OBJECT_ID      = 1990-037B
CENTER_NAME    = EARTH
REF_FRAME      = TEME
TIME_SYSTEM    = UTC
MEAN_ELEMENT_THEORY = SGP/SGP4

EPOCH          = 2026-03-07T01:43:17.774400
MEAN_MOTION    = 15.29432288
ECCENTRICITY   = .0001811
INCLINATION    = 28.4710
RA_OF_ASC_NODE = 57.8566
ARG_OF_PERICENTER = 100.2255
MEAN_ANOMALY   = 259.8544

EPHEMERIS_TYPE = 0
CLASSIFICATION_TYPE = U
NORAD_CAT_ID   = 20580
ELEMENT_SET_NO = 999
REV_AT_EPOCH   = 77291
BSTAR          = .29166E-3
MEAN_MOTION_DOT = .88E-4
MEAN_MOTION_DDOT = 0

CCSDS_OMM_VERS = 2.0
CREATION_DATE  = 
ORIGINATOR     = 

OBJECT_NAME    = SL-16 R/B
OBJECT_ID      = 1990-046B
CENTER_NAME    = EARTH
REF_FRAME      = TEME
TIME_SYSTEM    = UTC
MEAN_ELEMENT_THEORY = SGP/SGP4

EPOCH          = 2026-03-07T01:57:29.665440
MEAN_MOTION    = 14.15013323
ECCENTRICITY   = .0016212
INCLINATION    = 70.9992
RA_OF_ASC_NODE = 303.3924
ARG_OF_PERICENTER = 303.1052
MEAN_ANOMALY   = 56.8514

EPHEMERIS_TYPE = 0
CLASSIFICATION_TYPE = U
NORAD_CAT_ID   = 20625
ELEMENT_SET_NO = 999
REV_AT_EPOCH   = 84802
BSTAR          = -.10331E-3
MEAN_MOTION_DOT = -.248E-5
MEAN_MOTION_DDOT = 0

CCSDS_OMM_VERS = 2.0
CREATION_DATE  = 
ORIGINATOR     = 

OBJECT_NAME    = COSMOS 2084
OBJECT_ID      = 1990-055A
CENTER_NAME    = EARTH
REF_FRAME      = TEME
TIME_SYSTEM    = UTC
MEAN_ELEMENT_THEORY = SGP/SGP4

EPOCH          = 2026-03-07T03:09:46.206720
MEAN_MOTION    = 15.05631560
ECCENTRICITY   = .0017446
INCLINATION    = 62.7925
RA_OF_ASC_NODE = 344.3021
ARG_OF_PERICENTER = 189.2784
MEAN_ANOMALY   = 170.7997

EPHEMERIS_TYPE = 0
CLASSIFICATION_TYPE = U
NORAD_CAT_ID   = 20663
ELEMENT_SET_NO = 999
REV_AT_EPOCH   = 93593
BSTAR          = .22415E-3
MEAN_MOTION_DOT = .3059E-4
MEAN_MOTION_DDOT = 0

CCSDS_OMM_VERS = 2.0
CREATION_DATE  = 
ORIGINATOR     = 

OBJECT_NAME    = SL-6 R/B(2)
OBJECT_ID      = 1990-055D
CENTER_NAME    = EARTH
REF_FRAME      = TEME
TIME_SYSTEM    = UTC
MEAN_ELEMENT_THEORY = SGP/SGP4

EPOCH          = 2026-03-06T23:28:11.841312
MEAN_MOTION    = 15.03577653
ECCENTRICITY   = .0024295
INCLINATION    = 62.7821
RA_OF_ASC_NODE = 263.0729
ARG_OF_PERICENTER = 346.3598
MEAN_ANOMALY   = 13.6841

EPHEMERIS_TYPE = 0
CLASSIFICATION_TYPE = U
NORAD_CAT_ID   = 20666
ELEMENT_SET_NO = 999
REV_AT_EPOCH   = 93778
BSTAR          = .17946E-3
MEAN_MOTION_DOT = .2277E-4
MEAN_MOTION_DDOT = 0

CCSDS_OMM_VERS = 2.0
CREATION_DATE  = 
ORIGINATOR     = 

OBJECT_NAME    = SL-8 R/B
OBJECT_ID      = 1990-078B
CENTER_NAME    = EARTH
REF_FRAME      = TEME
TIME_SYSTEM    = UTC
MEAN_ELEMENT_THEORY = SGP/SGP4

EPOCH          = 2026-03-07T00:31:48.711648
MEAN_MOTION    = 14.88950066
ECCENTRICITY   = .0362913
INCLINATION    = 82.8998
RA_OF_ASC_NODE = 253.7106
ARG_OF_PERICENTER = 22.9600
MEAN_ANOMALY   = 338.7382

EPHEMERIS_TYPE = 0
CLASSIFICATION_TYPE = U
NORAD_CAT_ID   = 20775
ELEMENT_SET_NO = 999
REV_AT_EPOCH   = 80890
BSTAR          = .49097E-3
MEAN_MOTION_DOT = .16688E-3
MEAN_MOTION_DDOT = 0

CCSDS_OMM_VERS = 2.0
CREATION_DATE  = 
ORIGINATOR     = 

OBJECT_NAME    = SL-8 R/B
OBJECT_ID      = 1991-006B
CENTER_NAME    = EARTH
REF_FRAME      = TEME
TIME_SYSTEM    = UTC
MEAN_ELEMENT_THEORY = SGP/SGP4

EPOCH          = 2026-03-06T13:31:33.637728
MEAN_MOTION    = 13.77493784
ECCENTRICITY   = .00232614
INCLINATION    = 82.9466
RA_OF_ASC_NODE = 172.3698
ARG_OF_PERICENTER = 46.8205
MEAN_ANOMALY   = 324.6837

EPHEMERIS_TYPE = 0
CLASSIFICATION_TYPE = U
NORAD_CAT_ID   = 21088
ELEMENT_SET_NO = 999
REV_AT_EPOCH   = 76364
BSTAR          = .68619974E-4
MEAN_MOTION_DOT = .84E-6
MEAN_MOTION_DDOT = 0

CCSDS_OMM_VERS = 2.0
CREATION_DATE  = 
ORIGINATOR     = 

OBJECT_NAME    = OKEAN-3
OBJECT_ID      = 1991-039A
CENTER_NAME    = EARTH
REF_FRAME      = TEME
TIME_SYSTEM    = UTC
MEAN_ELEMENT_THEORY = SGP/SGP4

EPOCH          = 2026-03-07T03:39:07.290144
MEAN_MOTION    = 15.04779717
ECCENTRICITY   = .0014105
INCLINATION    = 82.5191
RA_OF_ASC_NODE = 339.3014
ARG_OF_PERICENTER = 347.6370
MEAN_ANOMALY   = 12.4508

EPHEMERIS_TYPE = 0
CLASSIFICATION_TYPE = U
NORAD_CAT_ID   = 21397
ELEMENT_SET_NO = 999
REV_AT_EPOCH   = 86465
BSTAR          = .26918E-3
MEAN_MOTION_DOT = .3831E-4
MEAN_MOTION_DDOT = 0

CCSDS_OMM_VERS = 2.0
CREATION_DATE  = 
ORIGINATOR     = 

OBJECT_NAME    = COSMOS 2151
OBJECT_ID      = 1991-042A
CENTER_NAME    = EARTH
REF_FRAME      = TEME
TIME_SYSTEM    = UTC
MEAN_ELEMENT_THEORY = SGP/SGP4

EPOCH          = 2026-03-07T03:33:58.647744
MEAN_MOTION    = 15.00092848
ECCENTRICITY   = .0014016
INCLINATION    = 82.4929
RA_OF_ASC_NODE = 86.1280
ARG_OF_PERICENTER = 71.4106
MEAN_ANOMALY   = 288.8638

EPHEMERIS_TYPE = 0
CLASSIFICATION_TYPE = U
NORAD_CAT_ID   = 21422
ELEMENT_SET_NO = 999
REV_AT_EPOCH   = 86281
BSTAR          = .1538E-3
MEAN_MOTION_DOT = .1947E-4
MEAN_MOTION_DDOT = 0

CCSDS_OMM_VERS = 2.0
CREATION_DATE  = 
ORIGINATOR     = 

OBJECT_NAME    = SL-14 R/B
OBJECT_ID      = 1991-042B
CENTER_NAME    = EARTH
REF_FRAME      = TEME
TIME_SYSTEM    = UTC
MEAN_ELEMENT_THEORY = SGP/SGP4

EPOCH          = 2026-03-06T22:07:11.000640
MEAN_MOTION    = 14.81825769
ECCENTRICITY   = .0015676
INCLINATION    = 82.4917
RA_OF_ASC_NODE = 222.7779
ARG_OF_PERICENTER = 248.4858
MEAN_ANOMALY   = 111.4686

EPHEMERIS_TYPE = 0
CLASSIFICATION_TYPE = U
NORAD_CAT_ID   = 21423
ELEMENT_SET_NO = 999
REV_AT_EPOCH   = 85266
BSTAR          = .73762E-4
MEAN_MOTION_DOT = .607E-5
MEAN_MOTION_DDOT = 0

